{
  "type": "Feature",
  "properties": {
    "locode": "CNSHA",
    "name": "Shanghai",
    "source": "osm"
  },
  "geometry": {
    "type": "MultiPolygon",
    "coordinates": [
      [
        [
          [
            121.4280906,
            31.0049262
          ],
          [
            121.4281679,
            31.0048533
          ],
          [
            121.4277541,
            31.0044389
          ],
          [
            121.4276651,
            31.0045052
          ],
          [
            121.4278856,
            31.0047406
          ],
          [
            121.427643,
            31.0050324
          ],
          [
            121.427705,
            31.0050707
          ],
          [
            121.4279359,
            31.0047936
          ],
          [
            121.4280906,
            31.0049262
          ]
        ]
      ],
      [
        [
          [
            121.4581315,
            31.0931447
          ],
          [
            121.4576879,
            31.0938201
          ],
          [
            121.4574577,
            31.094227
          ],
          [
            121.4573257,
            31.0944604
          ],
          [
            121.4569238,
            31.0951709
          ],
          [
            121.4557653,
            31.0969861
          ],
          [
            121.4546561,
            31.0965428
          ],
          [
            121.4532364,
            31.0973488
          ],
          [
            121.4525138,
            31.0977591
          ],
          [
            121.4523885,
            31.0978303
          ],
          [
            121.452354,
            31.097963
          ],
          [
            121.4522899,
            31.0982102
          ],
          [
            121.4531279,
            31.0991811
          ],
          [
            121.4537557,
            31.0987999
          ],
          [
            121.4539475,
            31.0987087
          ],
          [
            121.4542195,
            31.0985794
          ],
          [
            121.4549071,
            31.0996701
          ],
          [
            121.4555461,
            31.10044
          ],
          [
            121.4561282,
            31.1007008
          ],
          [
            121.4569056,
            31.1010195
          ],
          [
            121.4579732,
            31.0993881
          ],
          [
            121.4592254,
            31.0970756
          ],
          [
            121.4599299,
            31.0961301
          ],
          [
            121.4608212,
            31.0946446
          ],
          [
            121.46208,
            31.0925601
          ],
          [
            121.4626999,
            31.09128
          ],
          [
            121.4631405,
            31.0901146
          ],
          [
            121.4600541,
            31.0894297
          ],
          [
            121.4595365,
            31.0905484
          ],
          [
            121.4590189,
            31.0917305
          ],
          [
            121.4581315,
            31.0931447
          ]
        ]
      ],
      [
        [
          [
            121.4627411,
            31.1267973
          ],
          [
            121.4624806,
            31.1276741
          ],
          [
            121.4628641,
            31.1277288
          ],
          [
            121.4632766,
            31.1268158
          ],
          [
            121.4633052,
            31.1263949
          ],
          [
            121.4628366,
            31.1262959
          ],
          [
            121.4628843,
            31.1261406
          ],
          [
            121.4619119,
            31.12589
          ],
          [
            121.4616555,
            31.125751
          ],
          [
            121.4611341,
            31.1256778
          ],
          [
            121.4606033,
            31.1258287
          ],
          [
            121.4602529,
            31.1260485
          ],
          [
            121.4604075,
            31.1261241
          ],
          [
            121.4611939,
            31.1262851
          ],
          [
            121.4622795,
            31.1266363
          ],
          [
            121.4627411,
            31.1267973
          ]
        ]
      ],
      [
        [
          [
            121.6837484,
            31.3081853
          ],
          [
            121.6844302,
            31.3085932
          ],
          [
            121.6871849,
            31.3064493
          ],
          [
            121.6865872,
            31.3059066
          ],
          [
            121.6837484,
            31.3081853
          ]
        ]
      ],
      [
        [
          [
            121.5027542,
            31.3551623
          ],
          [
            121.5034855,
            31.3558724
          ],
          [
            121.5035686,
            31.355956
          ],
          [
            121.5070967,
            31.3534535
          ],
          [
            121.5111632,
            31.3510924
          ],
          [
            121.5174248,
            31.3478684
          ],
          [
            121.5172995,
            31.3476574
          ],
          [
            121.5179843,
            31.3473133
          ],
          [
            121.517855,
            31.347104
          ],
          [
            121.5184242,
            31.3468002
          ],
          [
            121.5175224,
            31.3454455
          ],
          [
            121.5151084,
            31.3464717
          ],
          [
            121.5114177,
            31.3481027
          ],
          [
            121.5089077,
            31.3492192
          ],
          [
            121.5065259,
            31.3502637
          ],
          [
            121.5051843,
            31.3508698
          ],
          [
            121.5039295,
            31.3513998
          ],
          [
            121.5031458,
            31.3516486
          ],
          [
            121.5022768,
            31.3517769
          ],
          [
            121.501419,
            31.3517938
          ],
          [
            121.500646,
            31.3522808
          ],
          [
            121.5006996,
            31.3529496
          ],
          [
            121.5007103,
            31.3537284
          ],
          [
            121.5006428,
            31.3541993
          ],
          [
            121.5013433,
            31.3543423
          ],
          [
            121.5019388,
            31.3544064
          ],
          [
            121.5021158,
            31.3544797
          ],
          [
            121.5027542,
            31.3551623
          ]
        ]
      ],
      [
        [
          [
            121.4980183,
            31.3622664
          ],
          [
            121.4989602,
            31.360738
          ],
          [
            121.4985704,
            31.3605654
          ],
          [
            121.4988555,
            31.3600261
          ],
          [
            121.498289,
            31.3598043
          ],
          [
            121.4982673,
            31.359342
          ],
          [
            121.4982781,
            31.3591202
          ],
          [
            121.4984658,
            31.3586086
          ],
          [
            121.4988122,
            31.3578659
          ],
          [
            121.4995665,
            31.3563744
          ],
          [
            121.4990757,
            31.3566579
          ],
          [
            121.4985307,
            31.3568613
          ],
          [
            121.4977657,
            31.3568798
          ],
          [
            121.4972244,
            31.356775
          ],
          [
            121.4964557,
            31.3565747
          ],
          [
            121.4929408,
            31.3649442
          ],
          [
            121.4943915,
            31.3652615
          ],
          [
            121.4945684,
            31.3647346
          ],
          [
            121.4968346,
            31.3652153
          ],
          [
            121.4980183,
            31.3622664
          ]
        ]
      ],
      [
        [
          [
            121.4924195,
            31.3668351
          ],
          [
            121.4924224,
            31.3670584
          ],
          [
            121.4924224,
            31.3671638
          ],
          [
            121.4923713,
            31.3672646
          ],
          [
            121.4921058,
            31.3675233
          ],
          [
            121.4919663,
            31.367686
          ],
          [
            121.4918161,
            31.3679127
          ],
          [
            121.4915291,
            31.3685585
          ],
          [
            121.4911161,
            31.3696876
          ],
          [
            121.490939,
            31.3701341
          ],
          [
            121.4913092,
            31.3703334
          ],
          [
            121.4926557,
            31.3711189
          ],
          [
            121.4935247,
            31.3714899
          ],
          [
            121.4936104,
            31.3714086
          ],
          [
            121.4938626,
            31.371538
          ],
          [
            121.494678,
            31.371996
          ],
          [
            121.4948712,
            31.372099
          ],
          [
            121.4950884,
            31.3721746
          ],
          [
            121.4952842,
            31.3721929
          ],
          [
            121.4959387,
            31.3722135
          ],
          [
            121.496022,
            31.3721059
          ],
          [
            121.4961775,
            31.3679791
          ],
          [
            121.4968612,
            31.3652824
          ],
          [
            121.4945789,
            31.3647682
          ],
          [
            121.4944643,
            31.3651663
          ],
          [
            121.4944151,
            31.3653373
          ],
          [
            121.4934685,
            31.3653408
          ],
          [
            121.4934792,
            31.3651484
          ],
          [
            121.4929267,
            31.365011
          ],
          [
            121.4924063,
            31.3661882
          ],
          [
            121.4923634,
            31.3663805
          ],
          [
            121.4924195,
            31.3668351
          ]
        ]
      ],
      [
        [
          [
            122.0388166,
            30.6325458
          ],
          [
            122.0422599,
            30.6360516
          ],
          [
            122.0440978,
            30.6379713
          ],
          [
            122.0458946,
            30.6398278
          ],
          [
            122.0472896,
            30.6388044
          ],
          [
            122.0498181,
            30.6388629
          ],
          [
            122.0505366,
            30.6390935
          ],
          [
            122.0519368,
            30.6390741
          ],
          [
            122.0522223,
            30.6390624
          ],
          [
            122.052177,
            30.6388245
          ],
          [
            122.0516536,
            30.6383146
          ],
          [
            122.0517413,
            30.638252
          ],
          [
            122.0521095,
            30.6379896
          ],
          [
            122.0522431,
            30.6378943
          ],
          [
            122.0522812,
            30.6378537
          ],
          [
            122.0523763,
            30.6379473
          ],
          [
            122.0529201,
            30.6375613
          ],
          [
            122.0528793,
            30.636723
          ],
          [
            122.0518779,
            30.6356336
          ],
          [
            122.0518598,
            30.6355166
          ],
          [
            122.0523673,
            30.6351228
          ],
          [
            122.0567867,
            30.6319097
          ],
          [
            122.0581853,
            30.6317674
          ],
          [
            122.0585185,
            30.6315083
          ],
          [
            122.059044,
            30.6314697
          ],
          [
            122.060691,
            30.6314752
          ],
          [
            122.0618021,
            30.6307092
          ],
          [
            122.0628274,
            30.6305658
          ],
          [
            122.0630028,
            30.6305676
          ],
          [
            122.0631976,
            30.6306417
          ],
          [
            122.0637641,
            30.6312148
          ],
          [
            122.0649015,
            30.6303726
          ],
          [
            122.0650199,
            30.6301672
          ],
          [
            122.065174,
            30.6299839
          ],
          [
            122.0663476,
            30.6291183
          ],
          [
            122.0715599,
            30.6253452
          ],
          [
            122.0741779,
            30.6237692
          ],
          [
            122.0805866,
            30.619768
          ],
          [
            122.0826886,
            30.6184279
          ],
          [
            122.0827902,
            30.618364
          ],
          [
            122.0841924,
            30.6174829
          ],
          [
            122.0856813,
            30.6165472
          ],
          [
            122.0896738,
            30.6140434
          ],
          [
            122.0934047,
            30.6116946
          ],
          [
            122.0940361,
            30.6113026
          ],
          [
            122.0939482,
            30.6112016
          ],
          [
            122.0887755,
            30.6049889
          ],
          [
            122.088433,
            30.6046406
          ],
          [
            122.0852861,
            30.6009407
          ],
          [
            122.0629894,
            30.614989
          ],
          [
            122.062693,
            30.615182
          ],
          [
            122.0388166,
            30.6325458
          ]
        ],
        [
          [
            122.0661363,
            30.6186884
          ],
          [
            122.0640413,
            30.6202411
          ],
          [
            122.0488412,
            30.6312669
          ],
          [
            122.0422599,
            30.6360516
          ],
          [
            122.0661363,
            30.6186884
          ]
        ],
        [
          [
            122.0817615,
            30.608881
          ],
          [
            122.0738508,
            30.6138535
          ],
          [
            122.07190594707762,
            30.615053294885026
          ],
          [
            122.088433,
            30.6046406
          ],
          [
            122.0817615,
            30.608881
          ]
        ]
      ],
      [
        [
          [
            122.0110873,
            30.6594155
          ],
          [
            122.011173,
            30.6594715
          ],
          [
            122.0115021,
            30.6596586
          ],
          [
            122.0117398,
            30.659568
          ],
          [
            122.012517,
            30.6593564
          ],
          [
            122.0125669,
            30.6595047
          ],
          [
            122.0125872,
            30.6595514
          ],
          [
            122.0126116,
            30.6595813
          ],
          [
            122.0126399,
            30.6596009
          ],
          [
            122.0126714,
            30.659612
          ],
          [
            122.0127075,
            30.6596151
          ],
          [
            122.0127417,
            30.6596128
          ],
          [
            122.0128593,
            30.6595835
          ],
          [
            122.0128943,
            30.6595701
          ],
          [
            122.0129268,
            30.6595507
          ],
          [
            122.0129528,
            30.6595332
          ],
          [
            122.0131318,
            30.6593622
          ],
          [
            122.0131599,
            30.6593388
          ],
          [
            122.0131919,
            30.6593191
          ],
          [
            122.0132165,
            30.6593064
          ],
          [
            122.0132434,
            30.6592958
          ],
          [
            122.013289,
            30.6592825
          ],
          [
            122.0148312,
            30.6588882
          ],
          [
            122.0151204,
            30.658828
          ],
          [
            122.015218,
            30.6588069
          ],
          [
            122.015335,
            30.6587945
          ],
          [
            122.0154327,
            30.658797
          ],
          [
            122.0155573,
            30.6588227
          ],
          [
            122.016149,
            30.6590473
          ],
          [
            122.0164367,
            30.6591927
          ],
          [
            122.016626,
            30.6592994
          ],
          [
            122.0167767,
            30.6594048
          ],
          [
            122.0169554,
            30.6595246
          ],
          [
            122.0171093,
            30.6594809
          ],
          [
            122.0172863,
            30.6594325
          ],
          [
            122.0180872,
            30.6592537
          ],
          [
            122.0181339,
            30.6592433
          ],
          [
            122.018673,
            30.6591371
          ],
          [
            122.0199954,
            30.6589018
          ],
          [
            122.0205613,
            30.6588003
          ],
          [
            122.0211138,
            30.6586964
          ],
          [
            122.0217522,
            30.6585719
          ],
          [
            122.0219622,
            30.658535
          ],
          [
            122.0219319,
            30.6584288
          ],
          [
            122.0220942,
            30.6583988
          ],
          [
            122.0221961,
            30.6583792
          ],
          [
            122.0222591,
            30.6583757
          ],
          [
            122.0229672,
            30.658393
          ],
          [
            122.023037,
            30.6583896
          ],
          [
            122.0239761,
            30.658253
          ],
          [
            122.0240445,
            30.6582417
          ],
          [
            122.0240865,
            30.6582342
          ],
          [
            122.0241214,
            30.6582244
          ],
          [
            122.0241444,
            30.6582131
          ],
          [
            122.0241689,
            30.6582015
          ],
          [
            122.0242074,
            30.6581767
          ],
          [
            122.02424,
            30.6581499
          ],
          [
            122.0242602,
            30.6581295
          ],
          [
            122.0242748,
            30.6581069
          ],
          [
            122.0242852,
            30.6580853
          ],
          [
            122.0242966,
            30.6580542
          ],
          [
            122.0243005,
            30.6580238
          ],
          [
            122.0243009,
            30.6579959
          ],
          [
            122.0242992,
            30.6579662
          ],
          [
            122.0242957,
            30.6579429
          ],
          [
            122.0242875,
            30.6579099
          ],
          [
            122.0242744,
            30.6578745
          ],
          [
            122.0241742,
            30.6575993
          ],
          [
            122.0241608,
            30.6575393
          ],
          [
            122.0240858,
            30.6573423
          ],
          [
            122.0242158,
            30.6573098
          ],
          [
            122.0243338,
            30.6572936
          ],
          [
            122.0244116,
            30.6573005
          ],
          [
            122.0244814,
            30.657319
          ],
          [
            122.0245404,
            30.6573559
          ],
          [
            122.0245806,
            30.6573951
          ],
          [
            122.0246208,
            30.6574528
          ],
          [
            122.0246852,
            30.6575936
          ],
          [
            122.0248649,
            30.6580873
          ],
          [
            122.0249025,
            30.6581427
          ],
          [
            122.0249641,
            30.6581658
          ],
          [
            122.0252592,
            30.6581473
          ],
          [
            122.0255489,
            30.6581173
          ],
          [
            122.0258841,
            30.6580619
          ],
          [
            122.0267666,
            30.6578704
          ],
          [
            122.0277241,
            30.6576282
          ],
          [
            122.0279038,
            30.657582
          ],
          [
            122.0283303,
            30.657462
          ],
          [
            122.0291001,
            30.6572152
          ],
          [
            122.0299316,
            30.656936
          ],
          [
            122.0307255,
            30.6566314
          ],
          [
            122.0309964,
            30.6565183
          ],
          [
            122.0314658,
            30.6563061
          ],
          [
            122.031597,
            30.656248
          ],
          [
            122.0315105,
            30.6559808
          ],
          [
            122.0327948,
            30.6556576
          ],
          [
            122.0330541,
            30.6555796
          ],
          [
            122.0331905,
            30.6555146
          ],
          [
            122.033971,
            30.6550947
          ],
          [
            122.0344109,
            30.6548409
          ],
          [
            122.0346657,
            30.6546886
          ],
          [
            122.0349393,
            30.6544832
          ],
          [
            122.0351592,
            30.654294
          ],
          [
            122.0355186,
            30.6539225
          ],
          [
            122.0355803,
            30.6538626
          ],
          [
            122.0355777,
            30.6537542
          ],
          [
            122.0358527,
            30.6534767
          ],
          [
            122.0359317,
            30.6533688
          ],
          [
            122.0360289,
            30.6532236
          ],
          [
            122.0361543,
            30.6529765
          ],
          [
            122.0362609,
            30.6528178
          ],
          [
            122.0363743,
            30.6527042
          ],
          [
            122.0369053,
            30.6523258
          ],
          [
            122.0374813,
            30.6519183
          ],
          [
            122.037769,
            30.651712
          ],
          [
            122.0380802,
            30.6514121
          ],
          [
            122.0383761,
            30.6511647
          ],
          [
            122.0384571,
            30.6511083
          ],
          [
            122.038517,
            30.6510709
          ],
          [
            122.0386098,
            30.6509735
          ],
          [
            122.039149,
            30.6508343
          ],
          [
            122.0392723,
            30.651148
          ],
          [
            122.0395857,
            30.6510614
          ],
          [
            122.0397592,
            30.6509875
          ],
          [
            122.0398075,
            30.6508029
          ],
          [
            122.0398021,
            30.6505814
          ],
          [
            122.0398591,
            30.6505688
          ],
          [
            122.0399959,
            30.6509273
          ],
          [
            122.0402433,
            30.6506615
          ],
          [
            122.04043,
            30.6503795
          ],
          [
            122.0405326,
            30.6501445
          ],
          [
            122.0402807,
            30.6500784
          ],
          [
            122.0396794,
            30.6502279
          ],
          [
            122.0395433,
            30.6498671
          ],
          [
            122.0400819,
            30.6497351
          ],
          [
            122.040226,
            30.6496663
          ],
          [
            122.0400185,
            30.6494404
          ],
          [
            122.0397136,
            30.6494249
          ],
          [
            122.0393783,
            30.649388
          ],
          [
            122.0390779,
            30.6493603
          ],
          [
            122.0387131,
            30.6493418
          ],
          [
            122.0385267,
            30.6493211
          ],
          [
            122.0384006,
            30.6493107
          ],
          [
            122.038292,
            30.6493084
          ],
          [
            122.0381981,
            30.6493291
          ],
          [
            122.0381069,
            30.649358
          ],
          [
            122.0380231,
            30.6493787
          ],
          [
            122.0379768,
            30.6493868
          ],
          [
            122.037952,
            30.6493857
          ],
          [
            122.0379239,
            30.6493816
          ],
          [
            122.0379071,
            30.6493695
          ],
          [
            122.0378937,
            30.6493516
          ],
          [
            122.0378789,
            30.6493314
          ],
          [
            122.0378622,
            30.6493205
          ],
          [
            122.0378374,
            30.6493176
          ],
          [
            122.0378079,
            30.6493211
          ],
          [
            122.0343836,
            30.6501726
          ],
          [
            122.0344323,
            30.6503469
          ],
          [
            122.0338905,
            30.6504829
          ],
          [
            122.0338114,
            30.6504852
          ],
          [
            122.0337725,
            30.6504806
          ],
          [
            122.0337483,
            30.6504667
          ],
          [
            122.0337322,
            30.650439
          ],
          [
            122.0336276,
            30.6501679
          ],
          [
            122.033582,
            30.6500664
          ],
          [
            122.0335498,
            30.6500341
          ],
          [
            122.0335042,
            30.6500225
          ],
          [
            122.0334586,
            30.6500271
          ],
          [
            122.0333433,
            30.6500548
          ],
          [
            122.0256883,
            30.6519608
          ],
          [
            122.0209086,
            30.6531468
          ],
          [
            122.0161235,
            30.654319
          ],
          [
            122.0118347,
            30.655385
          ],
          [
            122.0101067,
            30.6558084
          ],
          [
            122.0100289,
            30.6558286
          ],
          [
            122.0100068,
            30.655839
          ],
          [
            122.0099987,
            30.6558465
          ],
          [
            122.0099974,
            30.6558563
          ],
          [
            122.01,
            30.6558667
          ],
          [
            122.0100953,
            30.656143
          ],
          [
            122.0100953,
            30.6561684
          ],
          [
            122.0100875,
            30.6561806
          ],
          [
            122.0096601,
            30.6562849
          ],
          [
            122.0096279,
            30.6562947
          ],
          [
            122.0096131,
            30.6563033
          ],
          [
            122.0096091,
            30.6563137
          ],
          [
            122.0096098,
            30.6563253
          ],
          [
            122.0097193,
            30.656625
          ],
          [
            122.009827,
            30.6565976
          ],
          [
            122.0099233,
            30.6565752
          ],
          [
            122.0100719,
            30.6570009
          ],
          [
            122.0101691,
            30.6569821
          ],
          [
            122.0102254,
            30.6571529
          ],
          [
            122.0108262,
            30.6590748
          ],
          [
            122.0108799,
            30.6592133
          ],
          [
            122.0109523,
            30.6593079
          ],
          [
            122.011022,
            30.6593702
          ],
          [
            122.0110873,
            30.6594155
          ]
        ]
      ],
      [
        [
          [
            121.8858594,
            30.8521642
          ],
          [
            121.879939,
            30.8501223
          ],
          [
            121.8738639,
            30.8492677
          ],
          [
            121.8484878,
            30.8511624
          ],
          [
            121.8473678,
            30.8577027
          ],
          [
            121.8481765,
            30.85786
          ],
          [
            121.8501936,
            30.8592231
          ],
          [
            121.8516532,
            30.8596246
          ],
          [
            121.8652258,
            30.8693318
          ],
          [
            121.8726228,
            30.875614
          ],
          [
            121.8806718,
            30.8823923
          ],
          [
            121.9091411,
            30.8578063
          ],
          [
            121.8980499,
            30.8531992
          ],
          [
            121.8951363,
            30.8559928
          ],
          [
            121.8858594,
            30.8521642
          ]
        ]
      ],
      [
        [
          [
            121.7652497,
            31.2230442
          ],
          [
            121.7653986,
            31.2228781
          ],
          [
            121.765928,
            31.2232169
          ],
          [
            121.7659831,
            31.223201
          ],
          [
            121.7659836,
            31.2231618
          ],
          [
            121.7643895,
            31.2220885
          ],
          [
            121.764516,
            31.221969
          ],
          [
            121.7641938,
            31.2216826
          ],
          [
            121.7641103,
            31.2217521
          ],
          [
            121.7632506,
            31.2208269
          ],
          [
            121.7633659,
            31.2207071
          ],
          [
            121.7623727,
            31.2199683
          ],
          [
            121.7625239,
            31.2197322
          ],
          [
            121.7624501,
            31.2194534
          ],
          [
            121.7619883,
            31.2193149
          ],
          [
            121.7613915,
            31.2192002
          ],
          [
            121.7609254,
            31.2191027
          ],
          [
            121.7609244,
            31.2193352
          ],
          [
            121.7621698,
            31.2195659
          ],
          [
            121.7623363,
            31.219723
          ],
          [
            121.7622502,
            31.2198997
          ],
          [
            121.761395,
            31.2203021
          ],
          [
            121.7605973,
            31.2204641
          ],
          [
            121.7603447,
            31.2203905
          ],
          [
            121.7602587,
            31.2206408
          ],
          [
            121.7599717,
            31.2205573
          ],
          [
            121.7598284,
            31.2210473
          ],
          [
            121.762232,
            31.221567
          ],
          [
            121.76342,
            31.2223
          ],
          [
            121.7638801,
            31.2227463
          ],
          [
            121.764368,
            31.2235463
          ],
          [
            121.7646,
            31.2235402
          ],
          [
            121.7648216,
            31.2235419
          ],
          [
            121.7648638,
            31.2233996
          ],
          [
            121.7651738,
            31.2232156
          ],
          [
            121.7652497,
            31.2230442
          ]
        ]
      ],
      [
        [
          [
            121.8369456,
            31.3012722
          ],
          [
            121.8349078,
            31.3024472
          ],
          [
            121.8348125,
            31.3023394
          ],
          [
            121.8346514,
            31.3024334
          ],
          [
            121.8329621,
            31.3034186
          ],
          [
            121.8328243,
            31.303499
          ],
          [
            121.8306135,
            31.3047884
          ],
          [
            121.8304215,
            31.3049004
          ],
          [
            121.8300041,
            31.3051438
          ],
          [
            121.8299863,
            31.3054754
          ],
          [
            121.8318504,
            31.307861
          ],
          [
            121.8368715,
            31.3049414
          ],
          [
            121.8375206,
            31.3057206
          ],
          [
            121.8384647,
            31.3055281
          ],
          [
            121.839146,
            31.3055418
          ],
          [
            121.8397951,
            31.3056977
          ],
          [
            121.8447733,
            31.3026176
          ],
          [
            121.8436038,
            31.3011875
          ],
          [
            121.8417102,
            31.3024434
          ],
          [
            121.840935,
            31.3027986
          ],
          [
            121.8392152,
            31.3007353
          ],
          [
            121.838057,
            31.3014258
          ],
          [
            121.837136,
            31.3012549
          ],
          [
            121.8370408,
            31.3012469
          ],
          [
            121.8369456,
            31.3012722
          ]
        ]
      ]
    ]
  }
}