{
  "type": "Feature",
  "properties": {
    "locode": "DEHAM",
    "name": "Hamburg",
    "source": "osm"
  },
  "geometry": {
    "type": "MultiPolygon",
    "coordinates": [
      [
        [
          [
            9.9217584,
            53.5031886
          ],
          [
            9.9217135,
            53.5031719
          ],
          [
            9.9219239,
            53.5006374
          ],
          [
            9.9219202,
            53.5005551
          ],
          [
            9.9216732,
            53.5004349
          ],
          [
            9.9193051,
            53.5003626
          ],
          [
            9.9194566,
            53.5018413
          ],
          [
            9.9195613,
            53.5028393
          ],
          [
            9.9195726,
            53.5037238
          ],
          [
            9.9195838,
            53.5046027
          ],
          [
            9.9214745,
            53.5046628
          ],
          [
            9.9214754,
            53.5046118
          ],
          [
            9.9214871,
            53.5045527
          ],
          [
            9.9216433,
            53.5045565
          ],
          [
            9.9217378,
            53.5034468
          ],
          [
            9.9216414,
            53.5034423
          ],
          [
            9.9216471,
            53.5033813
          ],
          [
            9.9216508,
            53.5033238
          ],
          [
            9.9217415,
            53.5033272
          ],
          [
            9.9217584,
            53.5031886
          ]
        ]
      ],
      [
        [
          [
            9.9555718,
            53.5094646
          ],
          [
            9.9555799,
            53.509457
          ],
          [
            9.9556991,
            53.5095022
          ],
          [
            9.955691,
            53.5095098
          ],
          [
            9.9561415,
            53.5096807
          ],
          [
            9.9561497,
            53.5096731
          ],
          [
            9.9562677,
            53.5097179
          ],
          [
            9.9562596,
            53.5097254
          ],
          [
            9.9562778,
            53.5097324
          ],
          [
            9.9562859,
            53.5097248
          ],
          [
            9.956369,
            53.5097563
          ],
          [
            9.9564552,
            53.5096759
          ],
          [
            9.9563282,
            53.5096278
          ],
          [
            9.9562774,
            53.5096085
          ],
          [
            9.9555467,
            53.5093313
          ],
          [
            9.9554605,
            53.5094117
          ],
          [
            9.9555565,
            53.5094481
          ],
          [
            9.9555484,
            53.5094557
          ],
          [
            9.9555718,
            53.5094646
          ]
        ]
      ],
      [
        [
          [
            9.9424247,
            53.5148382
          ],
          [
            9.9443702,
            53.5132874
          ],
          [
            9.9445955,
            53.5133768
          ],
          [
            9.9477556,
            53.5109318
          ],
          [
            9.9474771,
            53.5107956
          ],
          [
            9.9477605,
            53.5102697
          ],
          [
            9.9482111,
            53.5092552
          ],
          [
            9.9488524,
            53.5077776
          ],
          [
            9.949056,
            53.5067089
          ],
          [
            9.9467082,
            53.5055307
          ],
          [
            9.9456813,
            53.5054627
          ],
          [
            9.9456894,
            53.5053577
          ],
          [
            9.9446919,
            53.5053067
          ],
          [
            9.9447016,
            53.505232
          ],
          [
            9.9444078,
            53.5052132
          ],
          [
            9.9435226,
            53.5072326
          ],
          [
            9.9430316,
            53.5072115
          ],
          [
            9.941934,
            53.5147065
          ],
          [
            9.9424247,
            53.5148382
          ]
        ]
      ],
      [
        [
          [
            9.9545619,
            53.5105761
          ],
          [
            9.954601,
            53.5105764
          ],
          [
            9.9546015,
            53.5105443
          ],
          [
            9.9542878,
            53.5105423
          ],
          [
            9.9542848,
            53.5107111
          ],
          [
            9.9543449,
            53.5107115
          ],
          [
            9.9544667,
            53.5107123
          ],
          [
            9.9545594,
            53.5107129
          ],
          [
            9.9545619,
            53.5105761
          ]
        ]
      ],
      [
        [
          [
            9.9012542,
            53.517218
          ],
          [
            9.9031779,
            53.5188264
          ],
          [
            9.9032944,
            53.5188987
          ],
          [
            9.9034535,
            53.5190033
          ],
          [
            9.90605,
            53.5179255
          ],
          [
            9.9087103,
            53.5168223
          ],
          [
            9.9087249,
            53.5167587
          ],
          [
            9.9088991,
            53.5166917
          ],
          [
            9.9088672,
            53.5159703
          ],
          [
            9.9054097,
            53.5159969
          ],
          [
            9.905152,
            53.5159969
          ],
          [
            9.9049436,
            53.5159996
          ],
          [
            9.9049436,
            53.5156179
          ],
          [
            9.9043416,
            53.5158743
          ],
          [
            9.9042842,
            53.5159016
          ],
          [
            9.9042321,
            53.5159263
          ],
          [
            9.9013359,
            53.5171443
          ],
          [
            9.9012508,
            53.51718
          ],
          [
            9.9012822,
            53.5172034
          ],
          [
            9.9012542,
            53.517218
          ]
        ]
      ],
      [
        [
          [
            9.8967368,
            53.5187848
          ],
          [
            9.8967166,
            53.5187501
          ],
          [
            9.8967088,
            53.5187088
          ],
          [
            9.8967267,
            53.5186735
          ],
          [
            9.896776,
            53.5186449
          ],
          [
            9.8985014,
            53.5179148
          ],
          [
            9.8985257,
            53.5179346
          ],
          [
            9.8986201,
            53.5180114
          ],
          [
            9.8987986,
            53.5179342
          ],
          [
            9.8988341,
            53.5179188
          ],
          [
            9.8989092,
            53.5178755
          ],
          [
            9.8989473,
            53.5178342
          ],
          [
            9.8989742,
            53.5177876
          ],
          [
            9.8989619,
            53.517725
          ],
          [
            9.8989394,
            53.5176797
          ],
          [
            9.8984297,
            53.517244
          ],
          [
            9.8983748,
            53.5172613
          ],
          [
            9.8982515,
            53.5171434
          ],
          [
            9.8982101,
            53.5171554
          ],
          [
            9.8981518,
            53.5171634
          ],
          [
            9.8980745,
            53.5171567
          ],
          [
            9.8980106,
            53.5171334
          ],
          [
            9.897763,
            53.5169196
          ],
          [
            9.8972694,
            53.5165038
          ],
          [
            9.8970292,
            53.5163014
          ],
          [
            9.8970751,
            53.5162814
          ],
          [
            9.8964634,
            53.5157671
          ],
          [
            9.8958281,
            53.5159476
          ],
          [
            9.8953845,
            53.5160922
          ],
          [
            9.894933,
            53.5162474
          ],
          [
            9.8944747,
            53.5164286
          ],
          [
            9.8940142,
            53.5166245
          ],
          [
            9.8938637,
            53.5166937
          ],
          [
            9.8964309,
            53.518899
          ],
          [
            9.8964438,
            53.518909
          ],
          [
            9.8966979,
            53.5188013
          ],
          [
            9.8967368,
            53.5187848
          ]
        ]
      ],
      [
        [
          [
            9.9419033,
            53.5275772
          ],
          [
            9.9419766,
            53.5296153
          ],
          [
            9.9420169,
            53.5306932
          ],
          [
            9.9427739,
            53.5306791
          ],
          [
            9.9429099,
            53.5308722
          ],
          [
            9.9431264,
            53.5311287
          ],
          [
            9.9437062,
            53.5319486
          ],
          [
            9.9440246,
            53.5325774
          ],
          [
            9.9442389,
            53.5331745
          ],
          [
            9.9437271,
            53.5341159
          ],
          [
            9.9432059,
            53.5350562
          ],
          [
            9.943899,
            53.5352034
          ],
          [
            9.9437071,
            53.535514
          ],
          [
            9.9435916,
            53.5356757
          ],
          [
            9.9432831,
            53.5360658
          ],
          [
            9.94245,
            53.5370902
          ],
          [
            9.9422422,
            53.5373414
          ],
          [
            9.9419075,
            53.5372902
          ],
          [
            9.9409403,
            53.5389781
          ],
          [
            9.9439128,
            53.5388747
          ],
          [
            9.9439182,
            53.5389673
          ],
          [
            9.9441452,
            53.5389589
          ],
          [
            9.9463531,
            53.5388781
          ],
          [
            9.9472235,
            53.5388461
          ],
          [
            9.950376,
            53.5349274
          ],
          [
            9.95209,
            53.5313673
          ],
          [
            9.9535639,
            53.5284007
          ],
          [
            9.9533822,
            53.5283734
          ],
          [
            9.9533852,
            53.5283554
          ],
          [
            9.9529453,
            53.5282843
          ],
          [
            9.9529466,
            53.5282272
          ],
          [
            9.9513861,
            53.5282207
          ],
          [
            9.9514406,
            53.528403
          ],
          [
            9.9502605,
            53.5287737
          ],
          [
            9.9498825,
            53.5288947
          ],
          [
            9.9498474,
            53.5288777
          ],
          [
            9.9496362,
            53.5289366
          ],
          [
            9.9484093,
            53.529273
          ],
          [
            9.9472781,
            53.529565
          ],
          [
            9.946073,
            53.5281063
          ],
          [
            9.9458062,
            53.5280016
          ],
          [
            9.9448968,
            53.5268576
          ],
          [
            9.9454762,
            53.5266944
          ],
          [
            9.9450581,
            53.5261703
          ],
          [
            9.9443435,
            53.5263699
          ],
          [
            9.9443972,
            53.5264378
          ],
          [
            9.9444732,
            53.5265297
          ],
          [
            9.9442179,
            53.5266021
          ],
          [
            9.9442047,
            53.5265856
          ],
          [
            9.9441067,
            53.5266133
          ],
          [
            9.94412,
            53.5266298
          ],
          [
            9.9439321,
            53.526683
          ],
          [
            9.9439711,
            53.5267317
          ],
          [
            9.9439066,
            53.5267498
          ],
          [
            9.9438523,
            53.5267657
          ],
          [
            9.9438194,
            53.5267251
          ],
          [
            9.943773,
            53.526625
          ],
          [
            9.9437541,
            53.5266075
          ],
          [
            9.9437343,
            53.526601
          ],
          [
            9.9437129,
            53.5265993
          ],
          [
            9.9436008,
            53.52661
          ],
          [
            9.943553,
            53.5266117
          ],
          [
            9.9435169,
            53.5266157
          ],
          [
            9.9434803,
            53.526623
          ],
          [
            9.9434526,
            53.5266302
          ],
          [
            9.9434254,
            53.5266345
          ],
          [
            9.9434077,
            53.5266355
          ],
          [
            9.9433855,
            53.526632
          ],
          [
            9.9433628,
            53.5266095
          ],
          [
            9.943351,
            53.5265855
          ],
          [
            9.9433376,
            53.5265736
          ],
          [
            9.9433233,
            53.5265711
          ],
          [
            9.943304,
            53.5265766
          ],
          [
            9.943273,
            53.526598
          ],
          [
            9.9432285,
            53.5266385
          ],
          [
            9.9431974,
            53.5266824
          ],
          [
            9.9433477,
            53.5270967
          ],
          [
            9.9435811,
            53.5270677
          ],
          [
            9.9436256,
            53.5271216
          ],
          [
            9.9436903,
            53.5271006
          ],
          [
            9.9438876,
            53.5273487
          ],
          [
            9.9439153,
            53.5273417
          ],
          [
            9.9439682,
            53.5274091
          ],
          [
            9.9440112,
            53.5274639
          ],
          [
            9.9439721,
            53.5274748
          ],
          [
            9.9438156,
            53.5275185
          ],
          [
            9.9438035,
            53.5275031
          ],
          [
            9.9437121,
            53.5275286
          ],
          [
            9.9437242,
            53.527544
          ],
          [
            9.943572,
            53.5275865
          ],
          [
            9.943299,
            53.5274835
          ],
          [
            9.9430926,
            53.5275086
          ],
          [
            9.9426177,
            53.5275663
          ],
          [
            9.9419033,
            53.5275772
          ]
        ]
      ],
      [
        [
          [
            9.966635,
            53.5271223
          ],
          [
            9.9666542,
            53.5269466
          ],
          [
            9.966645,
            53.5269344
          ],
          [
            9.9665751,
            53.5268454
          ],
          [
            9.9665664,
            53.5268367
          ],
          [
            9.9664486,
            53.5267193
          ],
          [
            9.966516,
            53.5266965
          ],
          [
            9.9665428,
            53.5266795
          ],
          [
            9.9665638,
            53.5266665
          ],
          [
            9.9665714,
            53.5266459
          ],
          [
            9.9665664,
            53.5266233
          ],
          [
            9.9665559,
            53.5266052
          ],
          [
            9.9665233,
            53.5265793
          ],
          [
            9.9664726,
            53.5265544
          ],
          [
            9.966374,
            53.5265134
          ],
          [
            9.9662965,
            53.5264889
          ],
          [
            9.9661531,
            53.526457
          ],
          [
            9.9659596,
            53.5264295
          ],
          [
            9.9657597,
            53.5264135
          ],
          [
            9.9656213,
            53.5264045
          ],
          [
            9.9653438,
            53.5264058
          ],
          [
            9.9650721,
            53.5264161
          ],
          [
            9.9648526,
            53.5264355
          ],
          [
            9.9646606,
            53.5264622
          ],
          [
            9.9644788,
            53.5264979
          ],
          [
            9.9642875,
            53.526544
          ],
          [
            9.9641086,
            53.5265953
          ],
          [
            9.963934,
            53.5266564
          ],
          [
            9.963747,
            53.5267335
          ],
          [
            9.9632653,
            53.526942
          ],
          [
            9.962627,
            53.5272227
          ],
          [
            9.9624055,
            53.527069
          ],
          [
            9.9623251,
            53.5270902
          ],
          [
            9.9621199,
            53.5271787
          ],
          [
            9.9617685,
            53.527299
          ],
          [
            9.9611843,
            53.527568
          ],
          [
            9.9608665,
            53.5277553
          ],
          [
            9.9602732,
            53.5280165
          ],
          [
            9.9602639,
            53.5280394
          ],
          [
            9.956658,
            53.5296207
          ],
          [
            9.9567097,
            53.5296625
          ],
          [
            9.9567404,
            53.5296873
          ],
          [
            9.9583027,
            53.5309488
          ],
          [
            9.9583298,
            53.5309362
          ],
          [
            9.9584038,
            53.5309982
          ],
          [
            9.9585043,
            53.5310824
          ],
          [
            9.9585227,
            53.531098
          ],
          [
            9.9585942,
            53.5311583
          ],
          [
            9.956079,
            53.5322636
          ],
          [
            9.9566939,
            53.5327579
          ],
          [
            9.9641238,
            53.5294926
          ],
          [
            9.9635231,
            53.5289922
          ],
          [
            9.9631124,
            53.5286501
          ],
          [
            9.9648365,
            53.5278946
          ],
          [
            9.9656745,
            53.5275187
          ],
          [
            9.966635,
            53.5271223
          ]
        ]
      ],
      [
        [
          [
            10.0288284,
            53.5363346
          ],
          [
            10.0289102,
            53.5363177
          ],
          [
            10.0290083,
            53.5363001
          ],
          [
            10.0289524,
            53.536203
          ],
          [
            10.0289234,
            53.5361032
          ],
          [
            10.0288633,
            53.5359492
          ],
          [
            10.0287274,
            53.5357307
          ],
          [
            10.0286145,
            53.5355267
          ],
          [
            10.0285917,
            53.5354934
          ],
          [
            10.0285627,
            53.5354626
          ],
          [
            10.0285337,
            53.5354416
          ],
          [
            10.0284984,
            53.5354269
          ],
          [
            10.0283326,
            53.53538
          ],
          [
            10.0280322,
            53.5352797
          ],
          [
            10.0278458,
            53.5354928
          ],
          [
            10.0277353,
            53.53546
          ],
          [
            10.0272367,
            53.5360627
          ],
          [
            10.027092,
            53.5362424
          ],
          [
            10.0269417,
            53.5364251
          ],
          [
            10.0270757,
            53.536464
          ],
          [
            10.0283251,
            53.5356218
          ],
          [
            10.0284143,
            53.53563
          ],
          [
            10.0288284,
            53.5363346
          ]
        ]
      ],
      [
        [
          [
            10.0045319,
            53.5379673
          ],
          [
            10.0045694,
            53.538118
          ],
          [
            10.0046725,
            53.5380416
          ],
          [
            10.0047442,
            53.5380151
          ],
          [
            10.0052151,
            53.5379579
          ],
          [
            10.0051957,
            53.5378923
          ],
          [
            10.0051726,
            53.5378142
          ],
          [
            10.0061891,
            53.5377081
          ],
          [
            10.0076954,
            53.5375504
          ],
          [
            10.0077264,
            53.5375304
          ],
          [
            10.0077641,
            53.5375139
          ],
          [
            10.0078835,
            53.5375017
          ],
          [
            10.0079201,
            53.5374965
          ],
          [
            10.0078886,
            53.5373872
          ],
          [
            10.0075507,
            53.5374254
          ],
          [
            10.0044513,
            53.5377572
          ],
          [
            10.0044949,
            53.5379729
          ],
          [
            10.0045319,
            53.5379673
          ]
        ]
      ],
      [
        [
          [
            9.9990359,
            53.5387458
          ],
          [
            9.9990661,
            53.5387532
          ],
          [
            10.0001391,
            53.5390173
          ],
          [
            10.00076,
            53.5391705
          ],
          [
            10.0010797,
            53.5392472
          ],
          [
            10.001086,
            53.5392385
          ],
          [
            10.0012764,
            53.5392855
          ],
          [
            10.0013203,
            53.5392964
          ],
          [
            10.001356,
            53.5393052
          ],
          [
            10.00144,
            53.539191
          ],
          [
            10.0016282,
            53.5392385
          ],
          [
            10.0016762,
            53.5391699
          ],
          [
            10.0016736,
            53.5391513
          ],
          [
            9.9989363,
            53.5384706
          ],
          [
            9.9985197,
            53.538367
          ],
          [
            9.9950479,
            53.5383206
          ],
          [
            9.9950346,
            53.5383203
          ],
          [
            9.995026,
            53.5383238
          ],
          [
            9.9950149,
            53.5384658
          ],
          [
            9.9950149,
            53.5384815
          ],
          [
            9.9950997,
            53.5384795
          ],
          [
            9.9951009,
            53.538531
          ],
          [
            9.9953046,
            53.5385282
          ],
          [
            9.9953056,
            53.5385138
          ],
          [
            9.9966063,
            53.5385286
          ],
          [
            9.9965912,
            53.5386158
          ],
          [
            9.9966489,
            53.5386161
          ],
          [
            9.9967071,
            53.5386166
          ],
          [
            9.998404,
            53.5386399
          ],
          [
            9.9986235,
            53.5386432
          ],
          [
            9.9989796,
            53.5387319
          ],
          [
            9.9990077,
            53.5387389
          ],
          [
            9.9990359,
            53.5387458
          ]
        ]
      ],
      [
        [
          [
            10.0268379,
            53.5403381
          ],
          [
            10.0268725,
            53.5404496
          ],
          [
            10.0268862,
            53.5405043
          ],
          [
            10.0284015,
            53.5399284
          ],
          [
            10.0283039,
            53.539842
          ],
          [
            10.0270929,
            53.5403085
          ],
          [
            10.0268379,
            53.5403381
          ]
        ]
      ],
      [
        [
          [
            9.9820596,
            53.543483
          ],
          [
            9.9812677,
            53.5427517
          ],
          [
            9.9804417,
            53.5427709
          ],
          [
            9.9781665,
            53.5433847
          ],
          [
            9.9781612,
            53.543636
          ],
          [
            9.9805977,
            53.5436885
          ],
          [
            9.981891,
            53.5435556
          ],
          [
            9.9820596,
            53.543483
          ]
        ]
      ]
    ]
  }
}