{
  "type": "Feature",
  "properties": {
    "locode": "NLRTM",
    "name": "Rotterdam",
    "source": "osm"
  },
  "geometry": {
    "type": "MultiPolygon",
    "coordinates": [
      [
        [
          [
            4.400199,
            51.8858706
          ],
          [
            4.4000686,
            51.8860041
          ],
          [
            4.3999561,
            51.8861385
          ],
          [
            4.3986293,
            51.885706
          ],
          [
            4.3985979,
            51.8857338
          ],
          [
            4.3973771,
            51.8853695
          ],
          [
            4.3975473,
            51.8858822
          ],
          [
            4.398294,
            51.8861408
          ],
          [
            4.3981808,
            51.8862546
          ],
          [
            4.3978051,
            51.88683
          ],
          [
            4.3982247,
            51.886975
          ],
          [
            4.3977113,
            51.8875869
          ],
          [
            4.3972317,
            51.8874332
          ],
          [
            4.3962487,
            51.8886035
          ],
          [
            4.3977557,
            51.8915906
          ],
          [
            4.3989591,
            51.8915832
          ],
          [
            4.4020039,
            51.8889415
          ],
          [
            4.4039512,
            51.8860775
          ],
          [
            4.4034885,
            51.8859262
          ],
          [
            4.4033933,
            51.8859964
          ],
          [
            4.4031411,
            51.8859244
          ],
          [
            4.4026639,
            51.8864359
          ],
          [
            4.402118,
            51.8862644
          ],
          [
            4.4019768,
            51.8864273
          ],
          [
            4.400199,
            51.8858706
          ]
        ]
      ],
      [
        [
          [
            4.3117105,
            51.8907039
          ],
          [
            4.3117453,
            51.8907278
          ],
          [
            4.3117607,
            51.8907588
          ],
          [
            4.3117595,
            51.8907961
          ],
          [
            4.3117381,
            51.8909235
          ],
          [
            4.3117329,
            51.8910451
          ],
          [
            4.3117579,
            51.8911754
          ],
          [
            4.3117989,
            51.8912817
          ],
          [
            4.3118608,
            51.891377
          ],
          [
            4.311923,
            51.8914592
          ],
          [
            4.3120085,
            51.8915249
          ],
          [
            4.3121127,
            51.8915831
          ],
          [
            4.3122339,
            51.8916408
          ],
          [
            4.3123718,
            51.8916932
          ],
          [
            4.3125075,
            51.8917297
          ],
          [
            4.3126401,
            51.8917605
          ],
          [
            4.3127878,
            51.8917859
          ],
          [
            4.3129239,
            51.8918009
          ],
          [
            4.313073,
            51.8918096
          ],
          [
            4.3132534,
            51.8918137
          ],
          [
            4.3133802,
            51.8918144
          ],
          [
            4.313575,
            51.8918136
          ],
          [
            4.3137615,
            51.8918087
          ],
          [
            4.3139343,
            51.8917954
          ],
          [
            4.314107,
            51.8917758
          ],
          [
            4.3142899,
            51.8917488
          ],
          [
            4.3146074,
            51.8916951
          ],
          [
            4.3148874,
            51.8916395
          ],
          [
            4.3151788,
            51.8915679
          ],
          [
            4.315461,
            51.8914932
          ],
          [
            4.3159735,
            51.8913431
          ],
          [
            4.3163958,
            51.8912082
          ],
          [
            4.3168145,
            51.891055
          ],
          [
            4.3171526,
            51.8909109
          ],
          [
            4.3173895,
            51.8907969
          ],
          [
            4.3177026,
            51.8906057
          ],
          [
            4.3188945,
            51.8898045
          ],
          [
            4.3194043,
            51.8893455
          ],
          [
            4.319688,
            51.889053
          ],
          [
            4.3200433,
            51.8886298
          ],
          [
            4.3203123,
            51.888257
          ],
          [
            4.3204589,
            51.8880433
          ],
          [
            4.3205693,
            51.8878703
          ],
          [
            4.3212162,
            51.8865343
          ],
          [
            4.3212202,
            51.8864952
          ],
          [
            4.3212042,
            51.8864648
          ],
          [
            4.3211838,
            51.8864451
          ],
          [
            4.3194256,
            51.8861241
          ],
          [
            4.3185139,
            51.8859548
          ],
          [
            4.3184798,
            51.8859641
          ],
          [
            4.3179492,
            51.8864333
          ],
          [
            4.317555,
            51.8867715
          ],
          [
            4.3170375,
            51.8872251
          ],
          [
            4.3164979,
            51.887687
          ],
          [
            4.3156667,
            51.8885892
          ],
          [
            4.3153666,
            51.8889242
          ],
          [
            4.3150302,
            51.8892807
          ],
          [
            4.3145577,
            51.8897025
          ],
          [
            4.3144374,
            51.8898403
          ],
          [
            4.3144043,
            51.8898793
          ],
          [
            4.3143774,
            51.8899099
          ],
          [
            4.3143448,
            51.8899418
          ],
          [
            4.3143086,
            51.8899677
          ],
          [
            4.3142721,
            51.8899858
          ],
          [
            4.3142367,
            51.8899996
          ],
          [
            4.3141965,
            51.8900054
          ],
          [
            4.3141748,
            51.8899486
          ],
          [
            4.3140196,
            51.8898947
          ],
          [
            4.3143284,
            51.8895858
          ],
          [
            4.314351,
            51.8893726
          ],
          [
            4.3149508,
            51.8887629
          ],
          [
            4.3149652,
            51.8887143
          ],
          [
            4.3149517,
            51.8886688
          ],
          [
            4.3149106,
            51.8886368
          ],
          [
            4.3148539,
            51.8886077
          ],
          [
            4.3129616,
            51.8884636
          ],
          [
            4.3128958,
            51.888474
          ],
          [
            4.3128461,
            51.8884932
          ],
          [
            4.3128206,
            51.8885226
          ],
          [
            4.312607,
            51.8896489
          ],
          [
            4.3125903,
            51.8896771
          ],
          [
            4.3125628,
            51.8897021
          ],
          [
            4.3125264,
            51.8897248
          ],
          [
            4.3124845,
            51.8897409
          ],
          [
            4.3124258,
            51.8897561
          ],
          [
            4.3123669,
            51.8897572
          ],
          [
            4.3123141,
            51.8897486
          ],
          [
            4.3122661,
            51.8897335
          ],
          [
            4.3115592,
            51.8906982
          ],
          [
            4.3116148,
            51.8906914
          ],
          [
            4.3116653,
            51.8906934
          ],
          [
            4.3117105,
            51.8907039
          ]
        ]
      ],
      [
        [
          [
            4.439324,
            51.8906927
          ],
          [
            4.4305206,
            51.8878722
          ],
          [
            4.4294654,
            51.8879861
          ],
          [
            4.4285472,
            51.8879714
          ],
          [
            4.4279599,
            51.8878966
          ],
          [
            4.427468,
            51.8877694
          ],
          [
            4.4273278,
            51.8877115
          ],
          [
            4.4266112,
            51.8881146
          ],
          [
            4.4278545,
            51.8885134
          ],
          [
            4.4383,
            51.8919
          ],
          [
            4.4385173,
            51.891608
          ],
          [
            4.4386,
            51.8916
          ],
          [
            4.439324,
            51.8906927
          ]
        ]
      ],
      [
        [
          [
            4.1333472,
            51.9394468
          ],
          [
            4.1332797,
            51.9394452
          ],
          [
            4.1330801,
            51.9394316
          ],
          [
            4.1325078,
            51.9395277
          ],
          [
            4.1275772,
            51.9406001
          ],
          [
            4.1275983,
            51.9406435
          ],
          [
            4.1273392,
            51.940704
          ],
          [
            4.1270531,
            51.9407671
          ],
          [
            4.1270004,
            51.9407347
          ],
          [
            4.126496,
            51.940849
          ],
          [
            4.1263108,
            51.940891
          ],
          [
            4.1258683,
            51.9409874
          ],
          [
            4.1254241,
            51.9410998
          ],
          [
            4.1249085,
            51.9412545
          ],
          [
            4.1244214,
            51.9414376
          ],
          [
            4.1241078,
            51.9415645
          ],
          [
            4.1237984,
            51.9417109
          ],
          [
            4.1233473,
            51.9419697
          ],
          [
            4.123276,
            51.9420121
          ],
          [
            4.1228435,
            51.9422786
          ],
          [
            4.122532,
            51.9425645
          ],
          [
            4.1223069,
            51.9428869
          ],
          [
            4.1222137,
            51.9430789
          ],
          [
            4.1221603,
            51.9433291
          ],
          [
            4.1221387,
            51.9438757
          ],
          [
            4.1221889,
            51.9438718
          ],
          [
            4.1222228,
            51.9438729
          ],
          [
            4.122216,
            51.9440102
          ],
          [
            4.1221352,
            51.9441679
          ],
          [
            4.1221028,
            51.9452635
          ],
          [
            4.1220198,
            51.948066
          ],
          [
            4.1274145,
            51.948122
          ],
          [
            4.1274083,
            51.9482042
          ],
          [
            4.1275467,
            51.9482058
          ],
          [
            4.1275944,
            51.9466731
          ],
          [
            4.126444,
            51.94486
          ],
          [
            4.1264232,
            51.9448272
          ],
          [
            4.1264238,
            51.9447938
          ],
          [
            4.1264253,
            51.9447104
          ],
          [
            4.1264776,
            51.9446982
          ],
          [
            4.1265611,
            51.9446788
          ],
          [
            4.1266493,
            51.9446583
          ],
          [
            4.1269798,
            51.9445813
          ],
          [
            4.1269827,
            51.9444763
          ],
          [
            4.1270005,
            51.9434195
          ],
          [
            4.1270117,
            51.9432984
          ],
          [
            4.1270594,
            51.9431975
          ],
          [
            4.1271735,
            51.9430955
          ],
          [
            4.1273054,
            51.9430234
          ],
          [
            4.1274607,
            51.9429807
          ],
          [
            4.1276571,
            51.9429634
          ],
          [
            4.128025,
            51.9429659
          ],
          [
            4.1314676,
            51.9430035
          ],
          [
            4.1315167,
            51.9430168
          ],
          [
            4.1315578,
            51.9430364
          ],
          [
            4.1315845,
            51.9430566
          ],
          [
            4.1315966,
            51.9430911
          ],
          [
            4.1315873,
            51.9433947
          ],
          [
            4.1314814,
            51.9475543
          ],
          [
            4.1314668,
            51.9480504
          ],
          [
            4.1313969,
            51.9506268
          ],
          [
            4.1325465,
            51.95137
          ],
          [
            4.1325817,
            51.9513938
          ],
          [
            4.1327854,
            51.951401
          ],
          [
            4.1328016,
            51.9509007
          ],
          [
            4.1328003,
            51.95085
          ],
          [
            4.1337016,
            51.9508566
          ],
          [
            4.1337496,
            51.9492701
          ],
          [
            4.1336995,
            51.9491243
          ],
          [
            4.1337858,
            51.9457764
          ],
          [
            4.1340213,
            51.9455045
          ],
          [
            4.1340673,
            51.9438673
          ],
          [
            4.1340692,
            51.9437996
          ],
          [
            4.1341744,
            51.9401691
          ],
          [
            4.135988,
            51.9397163
          ],
          [
            4.1378216,
            51.93926
          ],
          [
            4.1375542,
            51.9388554
          ],
          [
            4.136708,
            51.939055
          ],
          [
            4.1366894,
            51.9390242
          ],
          [
            4.1366843,
            51.9390158
          ],
          [
            4.1366522,
            51.9389629
          ],
          [
            4.1365747,
            51.9389673
          ],
          [
            4.136375,
            51.9389596
          ],
          [
            4.1362061,
            51.9389401
          ],
          [
            4.1341868,
            51.9394369
          ],
          [
            4.1340396,
            51.9394677
          ],
          [
            4.133847,
            51.9394597
          ],
          [
            4.1333472,
            51.9394468
          ]
        ]
      ],
      [
        [
          [
            4.0766852,
            51.9517191
          ],
          [
            4.0764034,
            51.9516639
          ],
          [
            4.0765761,
            51.9513447
          ],
          [
            4.0613705,
            51.9493519
          ],
          [
            4.0536749,
            51.9483423
          ],
          [
            4.0499399,
            51.9478512
          ],
          [
            4.0436602,
            51.9470252
          ],
          [
            4.0388582,
            51.9463925
          ],
          [
            4.0380273,
            51.9462852
          ],
          [
            4.0380145,
            51.9463219
          ],
          [
            4.0378221,
            51.9468745
          ],
          [
            4.0351965,
            51.946509
          ],
          [
            4.0343781,
            51.9478621
          ],
          [
            4.033663,
            51.9490449
          ],
          [
            4.0333899,
            51.9495055
          ],
          [
            4.0333258,
            51.9499756
          ],
          [
            4.0333707,
            51.9506851
          ],
          [
            4.0356702,
            51.9509831
          ],
          [
            4.0357572,
            51.9507294
          ],
          [
            4.0372145,
            51.9509159
          ],
          [
            4.0371271,
            51.9511708
          ],
          [
            4.0393127,
            51.9514646
          ],
          [
            4.0393967,
            51.9512046
          ],
          [
            4.0409471,
            51.9514093
          ],
          [
            4.0408944,
            51.9516723
          ],
          [
            4.0439927,
            51.9519125
          ],
          [
            4.0440305,
            51.951707
          ],
          [
            4.0456651,
            51.9518174
          ],
          [
            4.0456181,
            51.9520414
          ],
          [
            4.0477719,
            51.9522112
          ],
          [
            4.0478061,
            51.9519964
          ],
          [
            4.0491886,
            51.9521091
          ],
          [
            4.0491484,
            51.952319
          ],
          [
            4.0513037,
            51.9524972
          ],
          [
            4.0513363,
            51.9522744
          ],
          [
            4.052722,
            51.9523811
          ],
          [
            4.0526844,
            51.9525961
          ],
          [
            4.0548196,
            51.9527671
          ],
          [
            4.0548645,
            51.9525526
          ],
          [
            4.0557583,
            51.9526373
          ],
          [
            4.0557205,
            51.9528347
          ],
          [
            4.0572979,
            51.9529771
          ],
          [
            4.058166,
            51.9530948
          ],
          [
            4.0582519,
            51.9528536
          ],
          [
            4.0589702,
            51.9529521
          ],
          [
            4.0588945,
            51.9531686
          ],
          [
            4.0609833,
            51.9533418
          ],
          [
            4.0610477,
            51.9531368
          ],
          [
            4.062008,
            51.9532461
          ],
          [
            4.0619439,
            51.9534322
          ],
          [
            4.0647187,
            51.9537891
          ],
          [
            4.0654685,
            51.9538587
          ],
          [
            4.065545,
            51.9536418
          ],
          [
            4.066263,
            51.953739
          ],
          [
            4.0662237,
            51.9538577
          ],
          [
            4.0679004,
            51.9540756
          ],
          [
            4.0682762,
            51.9541003
          ],
          [
            4.0686843,
            51.954151
          ],
          [
            4.0687502,
            51.9539896
          ],
          [
            4.0696928,
            51.954124
          ],
          [
            4.0696289,
            51.9543298
          ],
          [
            4.0716751,
            51.9545975
          ],
          [
            4.0717394,
            51.9543904
          ],
          [
            4.072325,
            51.9544672
          ],
          [
            4.0725082,
            51.9545214
          ],
          [
            4.0726599,
            51.9546155
          ],
          [
            4.0726254,
            51.9547142
          ],
          [
            4.0729226,
            51.9547523
          ],
          [
            4.0731267,
            51.9547058
          ],
          [
            4.0735579,
            51.9546684
          ],
          [
            4.0745762,
            51.9553677
          ],
          [
            4.073442,
            51.9551961
          ],
          [
            4.0720055,
            51.9549771
          ],
          [
            4.0716037,
            51.9549213
          ],
          [
            4.069201,
            51.9546279
          ],
          [
            4.0689364,
            51.9551377
          ],
          [
            4.0683965,
            51.955092
          ],
          [
            4.0683646,
            51.9552342
          ],
          [
            4.0683263,
            51.9553307
          ],
          [
            4.0682734,
            51.9554493
          ],
          [
            4.0658317,
            51.9552777
          ],
          [
            4.0658361,
            51.9550383
          ],
          [
            4.0656214,
            51.954944
          ],
          [
            4.0656087,
            51.9546869
          ],
          [
            4.0637075,
            51.9545236
          ],
          [
            4.0635853,
            51.9551173
          ],
          [
            4.0605752,
            51.9549206
          ],
          [
            4.0607547,
            51.954413
          ],
          [
            4.0590687,
            51.954276
          ],
          [
            4.058402,
            51.9542233
          ],
          [
            4.0581836,
            51.9541639
          ],
          [
            4.0582241,
            51.9540887
          ],
          [
            4.0576898,
            51.9539369
          ],
          [
            4.0531523,
            51.9535663
          ],
          [
            4.0527752,
            51.9535344
          ],
          [
            4.0469582,
            51.9531169
          ],
          [
            4.0466792,
            51.9533002
          ],
          [
            4.0464066,
            51.9532745
          ],
          [
            4.0463698,
            51.9532987
          ],
          [
            4.0450913,
            51.9532028
          ],
          [
            4.0451422,
            51.9529375
          ],
          [
            4.0444335,
            51.9528835
          ],
          [
            4.0438734,
            51.9528802
          ],
          [
            4.0412406,
            51.9526826
          ],
          [
            4.0404353,
            51.952565
          ],
          [
            4.0401549,
            51.9527814
          ],
          [
            4.0398707,
            51.9527581
          ],
          [
            4.0398279,
            51.9527892
          ],
          [
            4.038558,
            51.9526933
          ],
          [
            4.0383504,
            51.9528588
          ],
          [
            4.0382174,
            51.9528485
          ],
          [
            4.0382504,
            51.9526934
          ],
          [
            4.0372399,
            51.9526166
          ],
          [
            4.0372603,
            51.9524782
          ],
          [
            4.0366475,
            51.9524241
          ],
          [
            4.0363717,
            51.952387
          ],
          [
            4.0351953,
            51.9522979
          ],
          [
            4.034492,
            51.9521335
          ],
          [
            4.0344365,
            51.9521309
          ],
          [
            4.0343811,
            51.9521509
          ],
          [
            4.0339834,
            51.9524366
          ],
          [
            4.0335351,
            51.952587
          ],
          [
            4.0324562,
            51.9524977
          ],
          [
            4.0317073,
            51.9524755
          ],
          [
            4.0310373,
            51.9525888
          ],
          [
            4.0309781,
            51.9530524
          ],
          [
            4.0311457,
            51.9535018
          ],
          [
            4.0315068,
            51.9536433
          ],
          [
            4.0307584,
            51.9548728
          ],
          [
            4.0302058,
            51.9549662
          ],
          [
            4.0295954,
            51.9548222
          ],
          [
            4.0296262,
            51.9549079
          ],
          [
            4.028271,
            51.9545945
          ],
          [
            4.0279364,
            51.9547992
          ],
          [
            4.0276364,
            51.9549424
          ],
          [
            4.0277482,
            51.9552057
          ],
          [
            4.0274572,
            51.9555906
          ],
          [
            4.0281628,
            51.9557549
          ],
          [
            4.028242,
            51.9556243
          ],
          [
            4.0295276,
            51.9559185
          ],
          [
            4.0298701,
            51.955357
          ],
          [
            4.0299371,
            51.9553461
          ],
          [
            4.0300182,
            51.9553389
          ],
          [
            4.0301192,
            51.9553319
          ],
          [
            4.0302114,
            51.9553359
          ],
          [
            4.0302858,
            51.9553461
          ],
          [
            4.0302897,
            51.9553469
          ],
          [
            4.0304004,
            51.955369
          ],
          [
            4.0318975,
            51.9557128
          ],
          [
            4.0320305,
            51.955848
          ],
          [
            4.0292382,
            51.9604369
          ],
          [
            4.0292216,
            51.9604642
          ],
          [
            4.0292069,
            51.9604883
          ],
          [
            4.029138,
            51.9606015
          ],
          [
            4.0294751,
            51.9606592
          ],
          [
            4.0299033,
            51.9607614
          ],
          [
            4.0302783,
            51.9608611
          ],
          [
            4.0304526,
            51.9609202
          ],
          [
            4.0305579,
            51.9609466
          ],
          [
            4.0306556,
            51.9609638
          ],
          [
            4.0307661,
            51.9609635
          ],
          [
            4.0308969,
            51.960936
          ],
          [
            4.0310495,
            51.9608769
          ],
          [
            4.0311823,
            51.960806
          ],
          [
            4.031268,
            51.9607309
          ],
          [
            4.0314321,
            51.96054
          ],
          [
            4.0314663,
            51.9605151
          ],
          [
            4.031513,
            51.9604963
          ],
          [
            4.0315809,
            51.9604751
          ],
          [
            4.0316159,
            51.960458
          ],
          [
            4.0316385,
            51.9604214
          ],
          [
            4.0316353,
            51.9603831
          ],
          [
            4.0317025,
            51.9603464
          ],
          [
            4.0317651,
            51.9602884
          ],
          [
            4.0321323,
            51.9599395
          ],
          [
            4.0321575,
            51.9598584
          ],
          [
            4.0322019,
            51.9598153
          ],
          [
            4.0323293,
            51.9597523
          ],
          [
            4.0326179,
            51.9594512
          ],
          [
            4.0327019,
            51.9593795
          ],
          [
            4.0327656,
            51.9593154
          ],
          [
            4.0328603,
            51.9591979
          ],
          [
            4.0329276,
            51.9591098
          ],
          [
            4.0330086,
            51.9590003
          ],
          [
            4.0330884,
            51.9588479
          ],
          [
            4.0331331,
            51.9587151
          ],
          [
            4.033162,
            51.9585657
          ],
          [
            4.0332054,
            51.9585322
          ],
          [
            4.0332222,
            51.9584908
          ],
          [
            4.033213,
            51.958452
          ],
          [
            4.0331831,
            51.9584101
          ],
          [
            4.0331326,
            51.9583612
          ],
          [
            4.0329648,
            51.9582407
          ],
          [
            4.0328028,
            51.9580975
          ],
          [
            4.0326928,
            51.9579549
          ],
          [
            4.0326584,
            51.9578902
          ],
          [
            4.0326553,
            51.9578197
          ],
          [
            4.032668,
            51.9577426
          ],
          [
            4.0326987,
            51.9576718
          ],
          [
            4.0329323,
            51.9572905
          ],
          [
            4.0340666,
            51.9573769
          ],
          [
            4.0340741,
            51.9573458
          ],
          [
            4.0337796,
            51.9573194
          ],
          [
            4.0338287,
            51.9570683
          ],
          [
            4.0341221,
            51.9570899
          ],
          [
            4.0341298,
            51.957055
          ],
          [
            4.0570171,
            51.9588557
          ],
          [
            4.0719789,
            51.9600257
          ],
          [
            4.0732992,
            51.9596402
          ],
          [
            4.0755066,
            51.9555085
          ],
          [
            4.0773559,
            51.9520469
          ],
          [
            4.0766852,
            51.9517191
          ]
        ]
      ],
      [
        [
          [
            4.1275782,
            51.9758864
          ],
          [
            4.1275762,
            51.9758814
          ],
          [
            4.1274961,
            51.9758414
          ],
          [
            4.127484,
            51.9758316
          ],
          [
            4.1274711,
            51.9758249
          ],
          [
            4.127459,
            51.9758185
          ],
          [
            4.1272177,
            51.9757045
          ],
          [
            4.1271841,
            51.9756886
          ],
          [
            4.1271673,
            51.9756807
          ],
          [
            4.1271506,
            51.9756729
          ],
          [
            4.1271193,
            51.9756539
          ],
          [
            4.1270746,
            51.9756573
          ],
          [
            4.1270081,
            51.9756786
          ],
          [
            4.1269934,
            51.975684
          ],
          [
            4.1269001,
            51.9757185
          ],
          [
            4.1268678,
            51.975732
          ],
          [
            4.126834,
            51.9757497
          ],
          [
            4.1267683,
            51.9757986
          ],
          [
            4.1267529,
            51.9758106
          ],
          [
            4.1267528,
            51.9758228
          ],
          [
            4.1267581,
            51.9758318
          ],
          [
            4.1268696,
            51.9759506
          ],
          [
            4.1269076,
            51.9759887
          ],
          [
            4.1269502,
            51.9760261
          ],
          [
            4.1269902,
            51.9760533
          ],
          [
            4.1270354,
            51.9760811
          ],
          [
            4.1270815,
            51.9761054
          ],
          [
            4.1271306,
            51.9761287
          ],
          [
            4.1271555,
            51.9761367
          ],
          [
            4.1271849,
            51.9761377
          ],
          [
            4.1272213,
            51.9761364
          ],
          [
            4.1272584,
            51.9761327
          ],
          [
            4.1272888,
            51.9761153
          ],
          [
            4.1274523,
            51.9759815
          ],
          [
            4.1275765,
            51.9758906
          ],
          [
            4.1275782,
            51.9758864
          ]
        ]
      ],
      [
        [
          [
            4.0413672,
            51.978159
          ],
          [
            4.0414853,
            51.9781945
          ],
          [
            4.0421311,
            51.9780407
          ],
          [
            4.0424669,
            51.9785994
          ],
          [
            4.0425262,
            51.9786967
          ],
          [
            4.0464458,
            51.9777634
          ],
          [
            4.046403,
            51.9776984
          ],
          [
            4.0457849,
            51.976758
          ],
          [
            4.0457949,
            51.9765134
          ],
          [
            4.0458273,
            51.9764028
          ],
          [
            4.0458907,
            51.9763033
          ],
          [
            4.0458692,
            51.9761784
          ],
          [
            4.0458709,
            51.976125
          ],
          [
            4.0459068,
            51.9760695
          ],
          [
            4.0459775,
            51.9759979
          ],
          [
            4.045199,
            51.9746964
          ],
          [
            4.0451875,
            51.9746614
          ],
          [
            4.0451767,
            51.9746113
          ],
          [
            4.0451837,
            51.9745649
          ],
          [
            4.0452173,
            51.9745175
          ],
          [
            4.0452575,
            51.9744846
          ],
          [
            4.0462721,
            51.974254
          ],
          [
            4.0463441,
            51.9742375
          ],
          [
            4.0465591,
            51.9741931
          ],
          [
            4.0453465,
            51.9722303
          ],
          [
            4.0453095,
            51.9721721
          ],
          [
            4.0201591,
            51.9780201
          ],
          [
            4.0196767,
            51.978128
          ],
          [
            4.0197927,
            51.9783173
          ],
          [
            4.019848,
            51.9784074
          ],
          [
            4.0218453,
            51.9816701
          ],
          [
            4.022266,
            51.9818153
          ],
          [
            4.0231613,
            51.982009
          ],
          [
            4.0258266,
            51.981388
          ],
          [
            4.0258616,
            51.9813798
          ],
          [
            4.0258904,
            51.9813729
          ],
          [
            4.0268036,
            51.9811534
          ],
          [
            4.0268395,
            51.9812091
          ],
          [
            4.0268918,
            51.98129
          ],
          [
            4.0270107,
            51.9814929
          ],
          [
            4.0413672,
            51.978159
          ]
        ]
      ]
    ]
  }
}