{
  "type": "Feature",
  "properties": {
    "locode": "SGSIN",
    "name": "Singapore",
    "source": "osm"
  },
  "geometry": {
    "type": "MultiPolygon",
    "coordinates": [
      [
        [
          [
            103.8946279,
            1.1547871
          ],
          [
            103.8946488,
            1.1547646
          ],
          [
            103.8941109,
            1.1541382
          ],
          [
            103.8936969,
            1.1536194
          ],
          [
            103.892566,
            1.1545659
          ],
          [
            103.8926297,
            1.1546437
          ],
          [
            103.8935225,
            1.1557044
          ],
          [
            103.8946279,
            1.1547871
          ]
        ]
      ],
      [
        [
          [
            103.6332176,
            1.2540125
          ],
          [
            103.6443543,
            1.2539721
          ],
          [
            103.644321,
            1.2479939
          ],
          [
            103.6377435,
            1.2450213
          ],
          [
            103.6173517,
            1.2450108
          ],
          [
            103.6173766,
            1.2381028
          ],
          [
            103.6207877,
            1.238061
          ],
          [
            103.6498592,
            1.238064
          ],
          [
            103.6498525,
            1.2292158
          ],
          [
            103.6190563,
            1.2291768
          ],
          [
            103.6188969,
            1.2209675
          ],
          [
            103.6231756,
            1.2205489
          ],
          [
            103.6380457,
            1.2204416
          ],
          [
            103.638668,
            1.2211066
          ],
          [
            103.6396582,
            1.2211168
          ],
          [
            103.6442313,
            1.2117801
          ],
          [
            103.6438002,
            1.2109538
          ],
          [
            103.6432969,
            1.2104177
          ],
          [
            103.6422446,
            1.2101324
          ],
          [
            103.6409585,
            1.2104509
          ],
          [
            103.6147425,
            1.2172069
          ],
          [
            103.6147564,
            1.2180829
          ],
          [
            103.6147565,
            1.2180917
          ],
          [
            103.6147567,
            1.2181033
          ],
          [
            103.6149364,
            1.2294555
          ],
          [
            103.6150016,
            1.2335706
          ],
          [
            103.6150163,
            1.2345729
          ],
          [
            103.6150183,
            1.23482
          ],
          [
            103.6150115,
            1.2358762
          ],
          [
            103.6150099,
            1.2361138
          ],
          [
            103.615011,
            1.23729
          ],
          [
            103.6150311,
            1.2499846
          ],
          [
            103.6149761,
            1.2504351
          ],
          [
            103.6149225,
            1.2506617
          ],
          [
            103.6147441,
            1.2513669
          ],
          [
            103.614671,
            1.251686
          ],
          [
            103.6146388,
            1.2519066
          ],
          [
            103.614604,
            1.2521238
          ],
          [
            103.6145905,
            1.2522914
          ],
          [
            103.6145718,
            1.2530476
          ],
          [
            103.6146006,
            1.2642961
          ],
          [
            103.6146194,
            1.2649209
          ],
          [
            103.6147106,
            1.2657388
          ],
          [
            103.6148648,
            1.2665151
          ],
          [
            103.6149117,
            1.2666988
          ],
          [
            103.6150673,
            1.2672243
          ],
          [
            103.6156401,
            1.2687106
          ],
          [
            103.6157554,
            1.2690098
          ],
          [
            103.6159991,
            1.2697249
          ],
          [
            103.6160356,
            1.269777
          ],
          [
            103.6160996,
            1.2698087
          ],
          [
            103.6202245,
            1.2698095
          ],
          [
            103.6202797,
            1.2697923
          ],
          [
            103.6203294,
            1.2697441
          ],
          [
            103.6203485,
            1.2696815
          ],
          [
            103.6203418,
            1.2691759
          ],
          [
            103.6199387,
            1.2650223
          ],
          [
            103.6202812,
            1.2650156
          ],
          [
            103.6202909,
            1.2608639
          ],
          [
            103.6173641,
            1.2608642
          ],
          [
            103.6173833,
            1.2539959
          ],
          [
            103.6332176,
            1.2540125
          ]
        ]
      ],
      [
        [
          [
            103.8361342,
            1.2638392
          ],
          [
            103.8424912,
            1.2578976
          ],
          [
            103.8424306,
            1.2577463
          ],
          [
            103.8405236,
            1.2568519
          ],
          [
            103.8402573,
            1.2569475
          ],
          [
            103.8401516,
            1.2570356
          ],
          [
            103.8399402,
            1.2569321
          ],
          [
            103.8399093,
            1.256986
          ],
          [
            103.8396595,
            1.2572913
          ],
          [
            103.8369063,
            1.256086
          ],
          [
            103.8353248,
            1.2575757
          ],
          [
            103.8357593,
            1.2580477
          ],
          [
            103.8349761,
            1.2587449
          ],
          [
            103.8348527,
            1.2594903
          ],
          [
            103.8347132,
            1.259603
          ],
          [
            103.8346113,
            1.2594742
          ],
          [
            103.834504,
            1.2599408
          ],
          [
            103.8337959,
            1.2603431
          ],
          [
            103.8338442,
            1.2605737
          ],
          [
            103.8331683,
            1.2608687
          ],
          [
            103.8325406,
            1.262129
          ],
          [
            103.8320042,
            1.2625098
          ],
          [
            103.8307436,
            1.2624561
          ],
          [
            103.8300033,
            1.2619681
          ],
          [
            103.8302554,
            1.2600213
          ],
          [
            103.8310708,
            1.2590506
          ],
          [
            103.8310493,
            1.2585303
          ],
          [
            103.8309373,
            1.2582138
          ],
          [
            103.83099,
            1.258195
          ],
          [
            103.8309684,
            1.2581307
          ],
          [
            103.8309461,
            1.258139
          ],
          [
            103.8305612,
            1.2570805
          ],
          [
            103.8304675,
            1.2571137
          ],
          [
            103.8295594,
            1.2574274
          ],
          [
            103.8292656,
            1.2575349
          ],
          [
            103.8289283,
            1.2576578
          ],
          [
            103.8287405,
            1.2570858
          ],
          [
            103.8287086,
            1.2571024
          ],
          [
            103.8286399,
            1.2571474
          ],
          [
            103.8283045,
            1.2573527
          ],
          [
            103.8279169,
            1.2574929
          ],
          [
            103.8272905,
            1.2575987
          ],
          [
            103.8267051,
            1.2576967
          ],
          [
            103.8263996,
            1.2578295
          ],
          [
            103.825941,
            1.2581049
          ],
          [
            103.8256092,
            1.2583413
          ],
          [
            103.8252695,
            1.2585988
          ],
          [
            103.8249495,
            1.2588835
          ],
          [
            103.8247354,
            1.2591162
          ],
          [
            103.8245654,
            1.2593467
          ],
          [
            103.8243801,
            1.2596516
          ],
          [
            103.8241852,
            1.260097
          ],
          [
            103.8248129,
            1.260433
          ],
          [
            103.8304659,
            1.2636365
          ],
          [
            103.8361342,
            1.2638392
          ]
        ]
      ],
      [
        [
          [
            103.8245183,
            1.2631104
          ],
          [
            103.8243814,
            1.2630569
          ],
          [
            103.824123,
            1.2630553
          ],
          [
            103.823915,
            1.263055
          ],
          [
            103.8239747,
            1.2633821
          ],
          [
            103.8240734,
            1.2636372
          ],
          [
            103.8242813,
            1.263892
          ],
          [
            103.8245764,
            1.2640517
          ],
          [
            103.8270948,
            1.2654771
          ],
          [
            103.8266963,
            1.2661513
          ],
          [
            103.8267399,
            1.2662145
          ],
          [
            103.8268935,
            1.2663391
          ],
          [
            103.8270042,
            1.2664289
          ],
          [
            103.8272113,
            1.2666233
          ],
          [
            103.8272328,
            1.2670094
          ],
          [
            103.8273401,
            1.2672454
          ],
          [
            103.8277165,
            1.2677063
          ],
          [
            103.831139,
            1.2697993
          ],
          [
            103.8314559,
            1.2699642
          ],
          [
            103.8315452,
            1.2700504
          ],
          [
            103.8315689,
            1.2701383
          ],
          [
            103.831536,
            1.2706333
          ],
          [
            103.8316219,
            1.2708446
          ],
          [
            103.8321139,
            1.2713016
          ],
          [
            103.8328562,
            1.271307
          ],
          [
            103.8328526,
            1.2714511
          ],
          [
            103.8336959,
            1.2714941
          ],
          [
            103.8337559,
            1.2712785
          ],
          [
            103.8372964,
            1.2714608
          ],
          [
            103.8390734,
            1.2715412
          ],
          [
            103.8390822,
            1.2723035
          ],
          [
            103.8398778,
            1.2723292
          ],
          [
            103.8398873,
            1.2720111
          ],
          [
            103.8402677,
            1.2720413
          ],
          [
            103.8404845,
            1.2721509
          ],
          [
            103.8408119,
            1.2722701
          ],
          [
            103.8409309,
            1.272266
          ],
          [
            103.8410513,
            1.2722233
          ],
          [
            103.8416767,
            1.2708807
          ],
          [
            103.8417153,
            1.2707037
          ],
          [
            103.8421077,
            1.2707092
          ],
          [
            103.8424288,
            1.2707921
          ],
          [
            103.8423538,
            1.2709335
          ],
          [
            103.8424588,
            1.2709116
          ],
          [
            103.8425466,
            1.2708494
          ],
          [
            103.8461153,
            1.2672226
          ],
          [
            103.8457374,
            1.2668448
          ],
          [
            103.8442944,
            1.2655398
          ],
          [
            103.8467367,
            1.2624697
          ],
          [
            103.8467406,
            1.2623558
          ],
          [
            103.8460126,
            1.2615762
          ],
          [
            103.8459326,
            1.2615662
          ],
          [
            103.839443,
            1.2676396
          ],
          [
            103.8355943,
            1.2674991
          ],
          [
            103.8321284,
            1.2674099
          ],
          [
            103.8245183,
            1.2631104
          ]
        ]
      ],
      [
        [
          [
            103.668859,
            1.2780685
          ],
          [
            103.6675447,
            1.2771407
          ],
          [
            103.6665656,
            1.2785384
          ],
          [
            103.6683895,
            1.2798149
          ],
          [
            103.6684105,
            1.2797848
          ],
          [
            103.6703797,
            1.2769939
          ],
          [
            103.6698434,
            1.2766688
          ],
          [
            103.668859,
            1.2780685
          ]
        ]
      ],
      [
        [
          [
            103.7737459,
            1.2864058
          ],
          [
            103.7739106,
            1.2861382
          ],
          [
            103.7740264,
            1.2858527
          ],
          [
            103.7740984,
            1.2857549
          ],
          [
            103.774276,
            1.2855568
          ],
          [
            103.7775869,
            1.2835458
          ],
          [
            103.7806292,
            1.281698
          ],
          [
            103.7813491,
            1.2809787
          ],
          [
            103.7810583,
            1.2803955
          ],
          [
            103.7865584,
            1.2727904
          ],
          [
            103.7768424,
            1.2786755
          ],
          [
            103.770638,
            1.2682079
          ],
          [
            103.750146,
            1.280484
          ],
          [
            103.7529838,
            1.2852976
          ],
          [
            103.7564385,
            1.2858114
          ],
          [
            103.7667316,
            1.2796597
          ],
          [
            103.7690958,
            1.2783512
          ],
          [
            103.7722997,
            1.2836751
          ],
          [
            103.770661,
            1.2846483
          ],
          [
            103.7610125,
            1.2903852
          ],
          [
            103.7614434,
            1.2910441
          ],
          [
            103.7621342,
            1.2906424
          ],
          [
            103.7622268,
            1.2906372
          ],
          [
            103.7623529,
            1.2906887
          ],
          [
            103.7635546,
            1.2926592
          ],
          [
            103.7732647,
            1.2867942
          ],
          [
            103.7735195,
            1.286627
          ],
          [
            103.7737459,
            1.2864058
          ]
        ]
      ],
      [
        [
          [
            103.7119812,
            1.3090617
          ],
          [
            103.7117132,
            1.3090725
          ],
          [
            103.71171,
            1.3103702
          ],
          [
            103.7123564,
            1.3104131
          ],
          [
            103.7141347,
            1.3106222
          ],
          [
            103.7141638,
            1.3122467
          ],
          [
            103.7168872,
            1.3122489
          ],
          [
            103.7164584,
            1.3101211
          ],
          [
            103.7166643,
            1.3100959
          ],
          [
            103.7167488,
            1.3104928
          ],
          [
            103.7176901,
            1.3103373
          ],
          [
            103.7182477,
            1.3109739
          ],
          [
            103.7185854,
            1.311067
          ],
          [
            103.7187696,
            1.3115861
          ],
          [
            103.7207401,
            1.3110942
          ],
          [
            103.7216823,
            1.3097863
          ],
          [
            103.721778,
            1.3093845
          ],
          [
            103.7217771,
            1.309047
          ],
          [
            103.7212662,
            1.3082076
          ],
          [
            103.7219636,
            1.3077481
          ],
          [
            103.7223815,
            1.3075841
          ],
          [
            103.7224771,
            1.3078389
          ],
          [
            103.7230013,
            1.3076158
          ],
          [
            103.7239904,
            1.3071949
          ],
          [
            103.7232098,
            1.3053637
          ],
          [
            103.7240991,
            1.304657
          ],
          [
            103.7259991,
            1.305288
          ],
          [
            103.7256081,
            1.3063944
          ],
          [
            103.7259337,
            1.3065102
          ],
          [
            103.7263529,
            1.3053143
          ],
          [
            103.7279759,
            1.3005206
          ],
          [
            103.7279367,
            1.3001075
          ],
          [
            103.7225008,
            1.302847
          ],
          [
            103.7196395,
            1.3052445
          ],
          [
            103.7158417,
            1.3084267
          ],
          [
            103.7147637,
            1.3084528
          ],
          [
            103.7127265,
            1.3084825
          ],
          [
            103.7127174,
            1.3088684
          ],
          [
            103.7121644,
            1.3088043
          ],
          [
            103.7121609,
            1.3078172
          ],
          [
            103.7122585,
            1.3077118
          ],
          [
            103.7122684,
            1.3072109
          ],
          [
            103.7125573,
            1.3065835
          ],
          [
            103.7127939,
            1.3064816
          ],
          [
            103.7137216,
            1.3064746
          ],
          [
            103.7142559,
            1.3062775
          ],
          [
            103.7143952,
            1.3062939
          ],
          [
            103.7146266,
            1.3065352
          ],
          [
            103.7153834,
            1.3059351
          ],
          [
            103.7209392,
            1.3011737
          ],
          [
            103.7207002,
            1.3008978
          ],
          [
            103.7208733,
            1.3007565
          ],
          [
            103.7208746,
            1.3005457
          ],
          [
            103.7204216,
            1.2999397
          ],
          [
            103.7204116,
            1.2997624
          ],
          [
            103.7219378,
            1.2997201
          ],
          [
            103.7219279,
            1.2994621
          ],
          [
            103.7123734,
            1.2995805
          ],
          [
            103.7118883,
            1.2995865
          ],
          [
            103.7119192,
            1.3006367
          ],
          [
            103.7120089,
            1.3028626
          ],
          [
            103.7122312,
            1.3033711
          ],
          [
            103.7124449,
            1.3040409
          ],
          [
            103.7124406,
            1.3045631
          ],
          [
            103.7125015,
            1.3052271
          ],
          [
            103.7123295,
            1.305896
          ],
          [
            103.7121276,
            1.3065536
          ],
          [
            103.7120259,
            1.3068689
          ],
          [
            103.7119916,
            1.3082895
          ],
          [
            103.7119812,
            1.3090617
          ]
        ]
      ],
      [
        [
          [
            103.5506837,
            1.3767253
          ],
          [
            103.5508597,
            1.3767172
          ],
          [
            103.5570023,
            1.3608336
          ],
          [
            103.5597962,
            1.3608342
          ],
          [
            103.5609687,
            1.3550119
          ],
          [
            103.5678712,
            1.3523918
          ],
          [
            103.5667284,
            1.3491086
          ],
          [
            103.5665717,
            1.3488305
          ],
          [
            103.5658813,
            1.3476288
          ],
          [
            103.5634863,
            1.3464189
          ],
          [
            103.5631354,
            1.3461401
          ],
          [
            103.5609001,
            1.3451741
          ],
          [
            103.5591857,
            1.3444746
          ],
          [
            103.5592274,
            1.3439195
          ],
          [
            103.5592694,
            1.3428544
          ],
          [
            103.5593272,
            1.3424669
          ],
          [
            103.559368,
            1.3422652
          ],
          [
            103.559476,
            1.3421445
          ],
          [
            103.5595778,
            1.3421637
          ],
          [
            103.5596964,
            1.3421574
          ],
          [
            103.5597995,
            1.3420707
          ],
          [
            103.5599625,
            1.3417407
          ],
          [
            103.5600778,
            1.3412555
          ],
          [
            103.5602264,
            1.3408462
          ],
          [
            103.5602555,
            1.3405165
          ],
          [
            103.5603869,
            1.3401818
          ],
          [
            103.5605651,
            1.3400111
          ],
          [
            103.5607342,
            1.339693
          ],
          [
            103.5609085,
            1.3389397
          ],
          [
            103.5609526,
            1.3385334
          ],
          [
            103.561111,
            1.3385401
          ],
          [
            103.561381,
            1.3382961
          ],
          [
            103.5613826,
            1.3381123
          ],
          [
            103.5614325,
            1.3375575
          ],
          [
            103.5616727,
            1.3367991
          ],
          [
            103.5619148,
            1.3359808
          ],
          [
            103.5622738,
            1.3351625
          ],
          [
            103.5623476,
            1.3349248
          ],
          [
            103.5623864,
            1.3352253
          ],
          [
            103.5623186,
            1.3357253
          ],
          [
            103.5622349,
            1.3359899
          ],
          [
            103.5621861,
            1.3361103
          ],
          [
            103.5621382,
            1.3361947
          ],
          [
            103.5621887,
            1.3362307
          ],
          [
            103.5622764,
            1.3362109
          ],
          [
            103.5623978,
            1.3360012
          ],
          [
            103.5624925,
            1.3356466
          ],
          [
            103.5625237,
            1.3352887
          ],
          [
            103.5625431,
            1.3349303
          ],
          [
            103.5625792,
            1.3342392
          ],
          [
            103.5626637,
            1.3339378
          ],
          [
            103.5627778,
            1.3337706
          ],
          [
            103.5629675,
            1.3338196
          ],
          [
            103.5630237,
            1.3338773
          ],
          [
            103.5630629,
            1.3339615
          ],
          [
            103.5631378,
            1.3338322
          ],
          [
            103.5631531,
            1.3336293
          ],
          [
            103.5631573,
            1.3333932
          ],
          [
            103.5633467,
            1.3329177
          ],
          [
            103.5633577,
            1.3326302
          ],
          [
            103.5632097,
            1.3324581
          ],
          [
            103.558934,
            1.3307656
          ],
          [
            103.5586953,
            1.3306959
          ],
          [
            103.5585129,
            1.3306691
          ],
          [
            103.5583869,
            1.3306557
          ],
          [
            103.5582581,
            1.330645
          ],
          [
            103.5580033,
            1.3306074
          ],
          [
            103.5578248,
            1.3305945
          ],
          [
            103.5576223,
            1.331064
          ],
          [
            103.5572082,
            1.3308946
          ],
          [
            103.5474369,
            1.355478
          ],
          [
            103.5419217,
            1.374338
          ],
          [
            103.5426304,
            1.3745332
          ],
          [
            103.5424603,
            1.3751344
          ],
          [
            103.5430158,
            1.375432
          ],
          [
            103.5427417,
            1.376215
          ],
          [
            103.5416842,
            1.3769002
          ],
          [
            103.5412926,
            1.3773896
          ],
          [
            103.5409401,
            1.3777811
          ],
          [
            103.5404981,
            1.3794787
          ],
          [
            103.5405929,
            1.3794793
          ],
          [
            103.5439487,
            1.3794986
          ],
          [
            103.5447156,
            1.3786159
          ],
          [
            103.5459281,
            1.3785762
          ],
          [
            103.5470089,
            1.3785734
          ],
          [
            103.5471189,
            1.3785492
          ],
          [
            103.5479155,
            1.3767714
          ],
          [
            103.5506837,
            1.3767253
          ]
        ]
      ],
      [
        [
          [
            103.9205709,
            1.4311695
          ],
          [
            103.915519,
            1.4320066
          ],
          [
            103.9121365,
            1.4325078
          ],
          [
            103.9109089,
            1.4327163
          ],
          [
            103.9064883,
            1.4334784
          ],
          [
            103.904851,
            1.4336878
          ],
          [
            103.9034168,
            1.4341509
          ],
          [
            103.9034612,
            1.4342905
          ],
          [
            103.9039562,
            1.4341255
          ],
          [
            103.9039901,
            1.4342766
          ],
          [
            103.9034993,
            1.434576
          ],
          [
            103.9031375,
            1.4348361
          ],
          [
            103.9027893,
            1.4348185
          ],
          [
            103.9026869,
            1.4348171
          ],
          [
            103.9015801,
            1.4349406
          ],
          [
            103.901052,
            1.4353299
          ],
          [
            103.9008764,
            1.4353036
          ],
          [
            103.9005076,
            1.4354704
          ],
          [
            103.9002423,
            1.4355576
          ],
          [
            103.9000862,
            1.435602
          ],
          [
            103.8996208,
            1.435703
          ],
          [
            103.8979878,
            1.436076
          ],
          [
            103.8971229,
            1.4362164
          ],
          [
            103.8963197,
            1.4363556
          ],
          [
            103.8959672,
            1.436598
          ],
          [
            103.8956479,
            1.4364227
          ],
          [
            103.8950289,
            1.4364841
          ],
          [
            103.8948401,
            1.4365719
          ],
          [
            103.8937295,
            1.4367387
          ],
          [
            103.89351,
            1.4369098
          ],
          [
            103.8935231,
            1.436708
          ],
          [
            103.8933441,
            1.4366951
          ],
          [
            103.8933374,
            1.4367879
          ],
          [
            103.8929873,
            1.4368172
          ],
          [
            103.8928137,
            1.4368965
          ],
          [
            103.8925018,
            1.4361929
          ],
          [
            103.89302,
            1.4359602
          ],
          [
            103.8928077,
            1.4354231
          ],
          [
            103.8864963,
            1.4382662
          ],
          [
            103.8866791,
            1.4386521
          ],
          [
            103.8871093,
            1.438459
          ],
          [
            103.8875792,
            1.4394652
          ],
          [
            103.887433,
            1.4396524
          ],
          [
            103.8875922,
            1.4400565
          ],
          [
            103.8875576,
            1.4400725
          ],
          [
            103.8874433,
            1.4401254
          ],
          [
            103.8869952,
            1.4399862
          ],
          [
            103.8865474,
            1.4402057
          ],
          [
            103.8859192,
            1.4407134
          ],
          [
            103.8860037,
            1.4408201
          ],
          [
            103.8848854,
            1.4418271
          ],
          [
            103.8859221,
            1.4434747
          ],
          [
            103.8862312,
            1.4440968
          ],
          [
            103.8870892,
            1.4441235
          ],
          [
            103.8873496,
            1.4441316
          ],
          [
            103.887462,
            1.4415557
          ],
          [
            103.8871468,
            1.4405487
          ],
          [
            103.887747,
            1.4402745
          ],
          [
            103.8879887,
            1.4413353
          ],
          [
            103.8877215,
            1.4473739
          ],
          [
            103.8893849,
            1.4459219
          ],
          [
            103.8902914,
            1.4452891
          ],
          [
            103.8916701,
            1.4446027
          ],
          [
            103.8929468,
            1.4441201
          ],
          [
            103.8940304,
            1.4438466
          ],
          [
            103.8952804,
            1.4436589
          ],
          [
            103.8968602,
            1.4435985
          ],
          [
            103.9008827,
            1.4437206
          ],
          [
            103.906265,
            1.4438955
          ],
          [
            103.9136766,
            1.4438791
          ],
          [
            103.9136711,
            1.443469
          ],
          [
            103.9137027,
            1.4426306
          ],
          [
            103.9152896,
            1.4399264
          ],
          [
            103.9159173,
            1.4398138
          ],
          [
            103.9155479,
            1.4372514
          ],
          [
            103.915743,
            1.4370173
          ],
          [
            103.9153853,
            1.435021
          ],
          [
            103.9155154,
            1.4349299
          ],
          [
            103.9194442,
            1.4342927
          ],
          [
            103.9196076,
            1.434322
          ],
          [
            103.9196609,
            1.4346019
          ],
          [
            103.9200735,
            1.4345403
          ],
          [
            103.9203232,
            1.4345046
          ],
          [
            103.9210807,
            1.4343807
          ],
          [
            103.920912,
            1.4333179
          ],
          [
            103.9205709,
            1.4311695
          ]
        ]
      ]
    ]
  }
}